NORAD_CAT_ID,OBJECT_NAME,OBJECT_TYPE,EPOCH,MEAN_MOTION,ECCENTRICITY,INCLINATION,RA_OF_ASC_NODE,ARG_OF_PERICENTER,MEAN_ANOMALY,BSTAR,MEAN_MOTION_DOT,MEAN_MOTION_DDOT,TLE_LINE0,TLE_LINE1,TLE_LINE2,SEMIMAJOR_AXIS,PERIOD,APOGEE,PERIGEE,DECAYED
53593.0,STARLINK-4671,PAYLOAD,2022-10-13 20:00:01,15.09152444,0.0001142,53.2175,63.6051,99.0403,290.8352,-0.027486,-0.00416638,0.0,0 STARLINK-4671,1 53593U 22104F   22286.83335648 -.00416638  00000-0 -27486-1 0  9992,2 53593  53.2175  63.6051 0001142  99.0403 290.8352 15.09152444  7296,6916.926,95.418,539.58,538.001,0.0
53593.0,STARLINK-4671,PAYLOAD,2022-10-13 22:00:00,15.09010843,0.0001132,53.2172,63.2305,98.2397,24.572,-0.016702,-0.00257914,0.0,0 STARLINK-4671,1 53593U 22104F   22286.91667824 -.00257914  00000-0 -16702-1 0  9994,2 53593  53.2172  63.2305 0001132  98.2397  24.5720 15.09010843  1306,6917.358,95.427,540.006,538.44,0.0
53593.0,STARLINK-4671,PAYLOAD,2022-10-14 06:00:00,15.08836888,0.0001331999999999,53.2173,61.7323,96.6844,37.8118,-4.1569e-05,-9.49e-06,0.0,0 STARLINK-4671,1 53593U 22104F   22287.25001157 -.00000949  00000-0 -41569-4 0  9999,2 53593  53.2173  61.7323 0001332  96.6844  37.8118 15.08836888  7354,6917.89,95.438,540.6759999999998,538.8330000000002,0.0
53593.0,STARLINK-4671,PAYLOAD,2022-10-14 14:00:01,15.08836234,0.0001361999999999,53.2174,60.2373,93.1752,52.9127,4.1523e-05,3.73e-06,0.0,0 STARLINK-4671,1 53593U 22104F   22287.58334491  .00000373  00000-0  41523-4 0  9994,2 53593  53.2174  60.2373 0001362  93.1752  52.9127 15.08836234  1309,6917.892,95.438,540.6990000000002,538.815,0.0
53593.0,STARLINK-4671,PAYLOAD,2022-10-14 20:00:01,15.08834893,0.0001337,53.2174,59.1157,90.5489,334.233,0.00025544,3.779e-05,0.0,0 STARLINK-4671,1 53593U 22104F   22287.83334491  .00003779  00000-0  25544-3 0  9999,2 53593  53.2174  59.1157 0001337  90.5489 334.2330 15.08834893  1307,6917.896,95.438,540.686,538.836,0.0
53593.0,STARLINK-4671,PAYLOAD,2022-10-15 14:00:01,15.08838697,0.0001315999999999,53.2144,55.7458,91.2842,89.6535,-0.00010966,-2.033e-05,0.0,0 STARLINK-4671,1 53593U 22104F   22288.58334491 -.00002033  00000-0 -10966-3 0  9998,2 53593  53.2144  55.7458 0001316  91.2842  89.6535 15.08838697  1302,6917.884,95.438,540.66,538.839,0.0
53593.0,STARLINK-4671,PAYLOAD,2022-10-15 22:00:01,15.08925457,0.0001434,53.2158,54.2512,84.3744,108.1889,-0.015044,-0.00232617,0.0,0 STARLINK-4671,1 53593U 22104F   22288.91668981 -.00232617  00000-0 -15044-1 0  9992,2 53593  53.2158  54.2512 0001434  84.3744 108.1889 15.08925457  1307,6917.619000000002,95.432,540.476,538.492,0.0
53593.0,STARLINK-4671,PAYLOAD,2022-10-16 14:00:01,15.0883468,0.0001503,53.2146,51.2566,86.9782,128.7471,-0.0016235,-0.00026029,0.0,0 STARLINK-4671,1 53593U 22104F   22289.58334491 -.00026029  00000-0 -16235-2 0  9994,2 53593  53.2146  51.2566 0001503  86.9782 128.7471 15.08834680  1309,6917.897,95.438,540.8009999999998,538.722,0.0
53593.0,STARLINK-4671,PAYLOAD,2022-10-16 22:00:00,15.0882381,0.0001405,53.2147,49.7601,82.9202,144.3789,-0.00091481,-0.00014811,0.0,0 STARLINK-4671,1 53593U 22104F   22289.91667824 -.00014811  00000-0 -91481-3 0  9993,2 53593  53.2147  49.7601 0001405  82.9202 144.3789 15.08823810  1305,6917.93,95.439,540.7669999999998,538.823,0.0
53593.0,STARLINK-4671,PAYLOAD,2022-10-17 14:00:01,15.08851422,0.0001426,53.2156,46.7681,83.0464,167.41299999999995,-0.001034,-0.00016711,0.0,0 STARLINK-4671,1 53593U 22104F   22290.58334491 -.00016711  00000-0 -10340-2 0  9994,2 53593  53.2156  46.7681 0001426  83.0464 167.4130 15.08851422  1301,6917.845,95.437,540.697,538.724,0.0
53593.0,STARLINK-4671,PAYLOAD,2022-10-17 22:00:00,15.08857769,0.0001326,53.2151,45.2707,81.2724,180.7803,-0.004226,-0.00066952,0.0,0 STARLINK-4671,1 53593U 22104F   22290.91667824 -.00066952  00000-0 -42260-2 0  9998,2 53593  53.2151  45.2707 0001326  81.2724 180.7803 15.08857769  1302,6917.826,95.436,540.6080000000002,538.774,0.0
53593.0,STARLINK-4671,PAYLOAD,2022-10-18 14:00:01,15.08829101,0.0001576999999999,53.2154,42.2782,75.8893,209.2643,0.00023009,3.375e-05,0.0,0 STARLINK-4671,1 53593U 22104F   22291.58334491  .00003375  00000-0  23009-3 0  9992,2 53593  53.2154  42.2782 0001577  75.8893 209.2643 15.08829101  8001,6917.9140000000025,95.438,540.87,538.688,0.0
53593.0,STARLINK-4671,PAYLOAD,2022-10-18 22:00:00,15.08850497,0.0001509,53.2153,40.7814,75.241,221.4835,-0.0010664,-0.00017224,0.0,0 STARLINK-4671,1 53593U 22104F   22291.91667824 -.00017224  00000-0 -10664-2 0  9990,2 53593  53.2153  40.7814 0001509  75.2410 221.4835 15.08850497  1300,6917.848000000001,95.437,540.757,538.669,0.0
53593.0,STARLINK-4671,PAYLOAD,2022-10-19 14:00:01,15.08833792,0.0001658,53.2156,37.7889,76.3109,243.623,0.00017777,2.542e-05,0.0,0 STARLINK-4671,1 53593U 22104F   22292.58334491  .00002542  00000-0  17777-3 0  9993,2 53593  53.2156  37.7889 0001658  76.3109 243.6230 15.08833792  1307,6917.899,95.438,540.911,538.617,0.0
53593.0,STARLINK-4671,PAYLOAD,2022-10-19 22:00:00,15.08862891,0.0001564999999999,53.2153,36.292,75.8297,255.69,-0.0013895,-0.00022348,0.0,0 STARLINK-4671,1 53593U 22104F   22292.91667824 -.00022348  00000-0 -13895-2 0  9993,2 53593  53.2153  36.2920 0001565  75.8297 255.6900 15.08862891  1302,6917.81,95.436,540.758,538.5930000000002,0.0
53593.0,STARLINK-4671,PAYLOAD,2022-10-20 14:00:01,15.08849693,0.0001486999999999,53.216,33.3007,74.7501,279.9828,-0.0014472,-0.00023252,0.0,0 STARLINK-4671,1 53593U 22104F   22293.58334491 -.00023252  00000-0 -14472-2 0  9995,2 53593  53.2160  33.3007 0001487  74.7501 279.9828 15.08849693  1306,6917.851,95.437,540.744,538.687,0.0
53593.0,STARLINK-4671,PAYLOAD,2022-10-20 22:00:00,15.08841696,0.0001356,53.2155,31.803,74.5836,291.7444,-0.0020509,-0.00032781,0.0,0 STARLINK-4671,1 53593U 22104F   22293.91667824 -.00032781  00000-0 -20509-2 0  9996,2 53593  53.2155  31.8030 0001356  74.5836 291.7444 15.08841696  1304,6917.875,95.437,540.678,538.802,0.0
53593.0,STARLINK-4671,PAYLOAD,2022-10-21 14:00:01,15.08845866,0.0001426999999999,53.2158,28.8117,72.4974,317.0199,0.00078307,0.00012199,0.0,0 STARLINK-4671,1 53593U 22104F   22294.58334491  .00012199  00000-0  78307-3 0  9990,2 53593  53.2158  28.8117 0001427  72.4974 317.0199 15.08845866  8464,6917.861999999999,95.437,540.715,538.74,0.0
53593.0,STARLINK-4671,PAYLOAD,2022-10-21 22:00:00,15.08874043,0.0001391,53.215,27.3133,75.2257,325.8805,-0.0042875,-0.00067943,0.0,0 STARLINK-4671,1 53593U 22104F   22294.91667824 -.00067943  00000-0 -42875-2 0  9995,2 53593  53.2150  27.3133 0001391  75.2257 325.8805 15.08874043  1309,6917.776,95.435,540.604,538.679,0.0
53593.0,STARLINK-4671,PAYLOAD,2022-10-22 06:00:00,15.08829023,0.0001455,53.2152,25.8162,83.0056,329.7072,0.0021534,0.00034139,0.0,0 STARLINK-4671,1 53593U 22104F   22295.25001157  .00034139  00000-0  21534-2 0  9992,2 53593  53.2152  25.8162 0001455  83.0056 329.7072 15.08829023  8563,6917.9140000000025,95.438,540.785,538.7719999999998,0.0
53593.0,STARLINK-4671,PAYLOAD,2022-10-22 14:00:01,15.08850369,0.0001483,53.2152,24.3216,73.4975,350.8109,-0.0010103,-0.00016335,0.0,0 STARLINK-4671,1 53593U 22104F   22295.58334491 -.00016335  00000-0 -10103-2 0  9998,2 53593  53.2152  24.3216 0001483  73.4975 350.8109 15.08850369  1309,6917.849,95.437,540.74,538.688,0.0
53593.0,STARLINK-4671,PAYLOAD,2022-10-22 22:00:00,15.08857233,0.000135,53.2151,22.8241,73.3931,2.5295,-0.00089159,-0.00014456,0.0,0 STARLINK-4671,1 53593U 22104F   22295.91667824 -.00014456  00000-0 -89159-3 0  9994,2 53593  53.2151  22.8241 0001350  73.3931   2.5295 15.08857233  8663,6917.828,95.436,540.627,538.759,0.0
53593.0,STARLINK-4671,PAYLOAD,2022-10-23 14:00:01,15.08848996,0.0001357,53.2154,19.8323,68.6713,30.4908,-0.00016072,-2.846e-05,0.0,0 STARLINK-4671,1 53593U 22104F   22296.58334491 -.00002846  00000-0 -16072-3 0  9993,2 53593  53.2154  19.8323 0001357  68.6713  30.4908 15.08848996  8763,6917.853,95.437,540.6569999999998,538.779,0.0
53593.0,STARLINK-4671,PAYLOAD,2022-10-23 22:00:00,15.08872458,0.0001279,53.2155,18.3348,69.8133,40.9502,-0.0054665,-0.00086321,0.0,0 STARLINK-4671,1 53593U 22104F   22296.91667824 -.00086321  00000-0 -54665-2 0  9998,2 53593  53.2155  18.3348 0001279  69.8133  40.9502 15.08872458  1306,6917.781,95.436,540.531,538.761,0.0
53593.0,STARLINK-4671,PAYLOAD,2022-10-24 06:00:00,15.08827558,0.0001339,53.2157,16.8377,76.5815,45.7768,-0.0043196999999999,-0.0006836,0.0,0 STARLINK-4671,1 53593U 22104F   22297.25001157 -.00068360  00000-0 -43197-2 0  9998,2 53593  53.2157  16.8377 0001339  76.5815  45.7768 15.08827558  8868,6917.918000000002,95.438,540.71,538.857,0.0
53593.0,STARLINK-4671,PAYLOAD,2022-10-24 14:00:01,15.08746413,0.0001446,53.2158,15.3433,66.7093,67.2065,0.004868,0.00077843,0.0,0 STARLINK-4671,1 53593U 22104F   22297.58334491  .00077843  00000-0  48680-2 0  9990,2 53593  53.2158  15.3433 0001446  66.7093  67.2065 15.08746413  1305,6918.166,95.443,541.0319999999998,539.031,0.0
53593.0,STARLINK-4671,PAYLOAD,2022-10-24 22:00:00,15.08818272,0.00013,53.2159,13.8459,68.7437,76.6849,-0.00091889,-0.00014873,0.0,0 STARLINK-4671,1 53593U 22104F   22297.91667824 -.00014873  00000-0 -91889-3 0  9992,2 53593  53.2159  13.8459 0001300  68.7437  76.6849 15.08818272  1307,6917.946999999999,95.439,540.711,538.9119999999998,0.0
53593.0,STARLINK-4671,PAYLOAD,2022-10-25 14:00:01,15.08809556,0.0001429,53.2161,10.8545,63.3397,105.2255,0.0022863,0.00036256,0.0,0 STARLINK-4671,1 53593U 22104F   22298.58334491  .00036256  00000-0  22863-2 0  9999,2 53593  53.2161  10.8545 0001429  63.3397 105.2255 15.08809556  1306,6917.973000000001,95.439,540.827,538.85,0.0
53593.0,STARLINK-4671,PAYLOAD,2022-10-25 22:00:01,15.08845244,0.0001314,53.2161,9.3568,67.9124,112.2908,-0.00071855,-0.00011707,0.0,0 STARLINK-4671,1 53593U 22104F   22298.91668981 -.00011707  00000-0 -71855-3 0  9992,2 53593  53.2161   9.3568 0001314  67.9124 112.2908 15.08845244  1302,6917.864000000001,95.437,540.638,538.82,0.0
